NORAD_CAT_ID,OBJECT_NAME,OBJECT_TYPE,EPOCH,MEAN_MOTION,ECCENTRICITY,INCLINATION,RA_OF_ASC_NODE,ARG_OF_PERICENTER,MEAN_ANOMALY,BSTAR,MEAN_MOTION_DOT,MEAN_MOTION_DDOT,TLE_LINE0,TLE_LINE1,TLE_LINE2,SEMIMAJOR_AXIS,PERIOD,APOGEE,PERIGEE,DECAYED
51144.0,STARLINK-3185,PAYLOAD,2022-02-26 14:00:01,15.73180953,0.000389,53.2144,83.7353,4.7712,20.591,0.00035236,0.00049095,0.0,0 STARLINK-3185,1 51144U 22005AS  22057.58334491  .00049095  00000-0  35236-3 0  9996,2 51144  53.2144  83.7353 0003890   4.7712  20.5910 15.73180953  3705,6727.949000000001,91.534,352.432,347.19699999999995,0.0
51144.0,STARLINK-3185,PAYLOAD,2022-02-26 22:00:00,15.73184143,0.0003641,53.2144,82.0839,14.538,99.7337,0.00058412,0.00082127,0.0,0 STARLINK-3185,1 51144U 22005AS  22057.91667824  .00082127  00000-0  58412-3 0  9996,2 51144  53.2144  82.0839 0003641  14.5380  99.7337 15.73184143  7430,6727.94,91.534,352.255,347.356,0.0
51144.0,STARLINK-3185,PAYLOAD,2022-02-27 14:00:01,15.73207095,0.0003893,53.2146,78.7866,10.9278,281.2494,0.00013075,0.00017777,0.0,0 STARLINK-3185,1 51144U 22005AS  22058.58334491  .00017777  00000-0  13075-3 0  9996,2 51144  53.2146  78.7866 0003893  10.9278 281.2494 15.73207095  7545,6727.875,91.533,352.3590000000001,347.121,0.0
51144.0,STARLINK-3185,PAYLOAD,2022-02-27 22:00:00,15.73184705,0.0003647,53.2147,77.1348,12.0565,9.0916,0.00027449,0.00038061,0.0,0 STARLINK-3185,1 51144U 22005AS  22058.91667824  .00038061  00000-0  27449-3 0  9991,2 51144  53.2147  77.1348 0003647  12.0565   9.0916 15.73184705  3704,6727.939,91.534,352.25699999999995,347.35,0.0
51144.0,STARLINK-3185,PAYLOAD,2022-02-28 14:00:01,15.72691825,0.0003676,53.2161,73.8216,9.5562,189.4993,0.005256,0.00793611,0.0,0 STARLINK-3185,1 51144U 22005AS  22059.58334491  .00793611  00000-0  52560-2 0  9996,2 51144  53.2161  73.8216 0003676   9.5562 189.4993 15.72691825  7704,6729.344,91.563,353.68300000000005,348.736,0.0
51144.0,STARLINK-3185,PAYLOAD,2022-02-28 22:00:00,15.73181636,0.000361,53.214,72.1859,10.3065,277.6151,0.00059325,0.00083424,0.0,0 STARLINK-3185,1 51144U 22005AS  22059.91667824  .00083424  00000-0  59325-3 0  9993,2 51144  53.2140  72.1859 0003610  10.3065 277.6151 15.73181636  3697,6727.948,91.534,352.241,347.384,0.0
51144.0,STARLINK-3185,PAYLOAD,2022-03-01 06:00:00,15.7324451,0.0003731,53.2143,70.5378,9.4491,7.407999999999999,-0.00062239,-0.00087277,0.0,0 STARLINK-3185,1 51144U 22005AS  22060.25001157 -.00087277  00000-0 -62239-3 0  9993,2 51144  53.2143  70.5378 0003731   9.4491   7.4080 15.73244510  7802,6727.768,91.531,352.14300000000014,347.12300000000016,0.0
51144.0,STARLINK-3185,PAYLOAD,2022-03-01 14:00:01,15.73231753,0.0003868,53.2143,68.8883,7.4474,98.3525,-0.00029985,-0.0004257,0.0,0 STARLINK-3185,1 51144U 22005AS  22060.58334491 -.00042570  00000-0 -29985-3 0  9997,2 51144  53.2143  68.8883 0003868   7.4474  98.3525 15.73231753  7856,6727.805,91.531,352.272,347.06699999999995,0.0
51144.0,STARLINK-3185,PAYLOAD,2022-03-01 22:00:01,15.73151984,0.0003625,53.2144,67.2365,7.0481,187.7778,0.00058963,0.00082799,0.0,0 STARLINK-3185,1 51144U 22005AS  22060.91668981  .00082799  00000-0  58963-3 0  9991,2 51144  53.2144  67.2365 0003625   7.0481 187.7778 15.73151984  3700,6728.031999999997,91.536,352.336,347.458,0.0
51144.0,STARLINK-3185,PAYLOAD,2022-03-02 06:00:00,15.73241016,0.0003828,53.215,65.58800000000001,7.2185,276.443,-0.00057032,-0.00080085,0.0,0 STARLINK-3185,1 51144U 22005AS  22061.25001157 -.00080085  00000-0 -57032-3 0  9999,2 51144  53.2150  65.5880 0003828   7.2185 276.4430 15.73241016  7967,6727.778,91.531,352.219,347.0680000000001,0.0
51144.0,STARLINK-3185,PAYLOAD,2022-03-02 14:00:01,15.73177883,0.0003872,53.2139,63.93899999999999,6.037000000000001,6.5643,0.00019047,0.00026175,0.0,0 STARLINK-3185,1 51144U 22005AS  22061.58334491  .00026175  00000-0  19047-3 0  9997,2 51144  53.2139  63.9390 0003872   6.0370   6.5643 15.73177883  3676,6727.958000000001,91.534,352.42800000000005,347.218,0.0
51144.0,STARLINK-3185,PAYLOAD,2022-03-02 20:00:01,15.73180183,0.000363,53.2141,62.7002,7.3326,341.9515,0.00025827,0.00035758,0.0,0 STARLINK-3185,1 51144U 22005AS  22061.83334491  .00035758  00000-0  25827-3 0  9995,2 51144  53.2141  62.7002 0003630   7.3326 341.9515 15.73180183  8051,6727.9519999999975,91.534,352.259,347.374,0.0
51144.0,STARLINK-3185,PAYLOAD,2022-03-02 22:00:00,15.73201641,0.0003598,53.2141,62.2876,8.8703,92.638,-5.0722e-05,-7.739e-05,0.0,0 STARLINK-3185,1 51144U 22005AS  22061.91667824 -.00007739  00000-0 -50722-4 0  9996,2 51144  53.2141  62.2876 0003598   8.8703  92.6380 15.73201641  3691,6727.89,91.533,352.176,347.335,0.0
51144.0,STARLINK-3185,PAYLOAD,2022-03-03 06:00:00,15.73170008,0.0003841,53.2144,60.6398,12.0817,178.3577,0.00017179,0.00023531,0.0,0 STARLINK-3185,1 51144U 22005AS  22062.25001157  .00023531  00000-0  17179-3 0  9999,2 51144  53.2144  60.6398 0003841  12.0817 178.3577 15.73170008  8113,6727.981,91.535,352.43,347.261,0.0
51144.0,STARLINK-3185,PAYLOAD,2022-03-03 14:00:01,15.73208907,0.0003882,53.2145,58.99,11.8304,267.5025,0.00011564,0.00015648,0.0,0 STARLINK-3185,1 51144U 22005AS  22062.58334491  .00015648  00000-0  11564-3 0  9997,2 51144  53.2145  58.9900 0003882  11.8304 267.5025 15.73208907  3705,6727.87,91.533,352.347,347.12300000000016,0.0
51144.0,STARLINK-3185,PAYLOAD,2022-03-03 22:00:00,15.7322956,0.0003679,53.2149,57.3386,13.2495,355.0211,-9.244e-05,-0.00013598,0.0,0 STARLINK-3185,1 51144U 22005AS  22062.91667824 -.00013598  00000-0 -92440-4 0  9990,2 51144  53.2149  57.3386 0003679  13.2495 355.0211 15.73229560  3697,6727.811,91.531,352.151,347.201,0.0
51144.0,STARLINK-3185,PAYLOAD,2022-03-04 06:00:02,15.73197801,0.0003888,53.2149,55.6908,12.7815,84.5165,0.0001411,0.00019229,0.0,0 STARLINK-3185,1 51144U 22005AS  22063.25002315  .00019229  00000-0  14110-3 0  9998,2 51144  53.2149  55.6908 0003888  12.7815  84.5165 15.73197801  8273,6727.901,91.533,352.38199999999995,347.151,0.0
51144.0,STARLINK-3185,PAYLOAD,2022-03-04 14:00:01,15.73266776,0.0003806,53.2145,54.0409,12.2268,174.0063,-0.00027309,-0.000389,0.0,0 STARLINK-3185,1 51144U 22005AS  22063.58335648 -.00038900  00000-0 -27309-3 0  9995,2 51144  53.2145  54.0409 0003806  12.2268 174.0063 15.73266776  8321,6727.705,91.529,352.13,347.009,0.0
51144.0,STARLINK-3185,PAYLOAD,2022-03-04 22:00:00,15.73208571,0.0003523999999999,53.2148,52.3896,11.2156,263.949,0.00026388,0.00036596,0.0,0 STARLINK-3185,1 51144U 22005AS  22063.91667824  .00036596  00000-0  26388-3 0  9999,2 51144  53.2148  52.3896 0003524  11.2156 263.9490 15.73208571  3693,6727.871,91.533,352.107,347.365,0.0
51144.0,STARLINK-3185,PAYLOAD,2022-03-05 06:00:00,15.73245189,0.000368,53.2151,50.742,8.1762,355.9513,-0.00056203,-0.00078951,0.0,0 STARLINK-3185,1 51144U 22005AS  22064.25001157 -.00078951  00000-0 -56203-3 0  9990,2 51144  53.2151  50.7420 0003680   8.1762 355.9513 15.73245189  3664,6727.766,91.531,352.107,347.156,0.0
51144.0,STARLINK-3185,PAYLOAD,2022-03-05 14:00:01,15.73188289,0.0003671,53.2153,49.0918,5.2025,87.8764,0.00011737,0.00015877,0.0,0 STARLINK-3185,1 51144U 22005AS  22064.58334491  .00015877  00000-0  11737-3 0  9995,2 51144  53.2153  49.0918 0003671   5.2025  87.8764 15.73188289  3676,6727.929,91.534,352.26300000000015,347.324,0.0
51144.0,STARLINK-3185,PAYLOAD,2022-03-05 22:00:01,15.732100099999998,0.0003455,53.2157,47.4408,6.0285,176.0224,0.0002553,0.00035383,0.0,0 STARLINK-3185,1 51144U 22005AS  22064.91668981  .00035383  00000-0  25530-3 0  9996,2 51144  53.2157  47.4408 0003455   6.0285 176.0224 15.73210010  8533,6727.8669999999975,91.533,352.056,347.407,0.0
51144.0,STARLINK-3185,PAYLOAD,2022-03-06 14:00:01,15.73196628,0.0003652,53.2152,44.143,1.3568,358.5546,0.0002392,0.00033085,0.0,0 STARLINK-3185,1 51144U 22005AS  22065.58334491  .00033085  00000-0  23920-3 0  9994,2 51144  53.2152  44.1430 0003652   1.3568 358.5546 15.73196628  8642,6727.905,91.533,352.227,347.31300000000016,0.0
51144.0,STARLINK-3185,PAYLOAD,2022-03-06 22:00:00,15.73239988,0.0003431,53.2157,42.4924,4.7498,84.0908,-0.00044707,-0.00063029,0.0,0 STARLINK-3185,1 51144U 22005AS  22065.91667824 -.00063029  00000-0 -44707-3 0  9999,2 51144  53.2157  42.4924 0003431   4.7498  84.0908 15.73239988  3667,6727.781,91.531,351.954,347.338,0.0
51144.0,STARLINK-3185,PAYLOAD,2022-03-07 06:00:00,15.73184613,0.0003695,53.2157,40.845,6.2508,171.5446,-0.00055102,-0.00077233,0.0,0 STARLINK-3185,1 51144U 22005AS  22066.25001157 -.00077233  00000-0 -55102-3 0  9991,2 51144  53.2157  40.8450 0003695   6.2508 171.5446 15.73184613  8741,6727.939,91.534,352.29,347.3180000000001,0.0
51144.0,STARLINK-3185,PAYLOAD,2022-03-07 12:00:00,15.73135785,0.00037,53.2157,39.6076,6.6962,147.7618,8.955e-05,0.00011932,0.0,0 STARLINK-3185,1 51144U 22005AS  22066.50001157  .00011932  00000-0  89550-4 0  9996,2 51144  53.2157  39.6076 0003700   6.6962 147.7618 15.73135785  3732,6728.078,91.537,352.43300000000005,347.454,0.0
51144.0,STARLINK-3185,PAYLOAD,2022-03-07 22:00:00,15.73153021,0.0003491,53.2163,37.5441,10.8004,344.717,0.00060768,0.00085381,0.0,0 STARLINK-3185,1 51144U 22005AS  22066.91667824  .00085381  00000-0  60768-3 0  9998,2 51144  53.2163  37.5441 0003491  10.8004 344.7170 15.73153021  8856,6728.029,91.536,352.24300000000005,347.545,0.0
51144.0,STARLINK-3185,PAYLOAD,2022-03-08 06:00:02,15.73211592,0.0003761,53.2162,35.8968,10.4173,74.0621,-0.00010971,-0.00016006,0.0,0 STARLINK-3185,1 51144U 22005AS  22067.25002315 -.00016006  00000-0 -10971-3 0  9995,2 51144  53.2162  35.8968 0003761  10.4173  74.0621 15.73211592  8901,6727.861999999999,91.533,352.25699999999995,347.19699999999995,0.0
51144.0,STARLINK-3185,PAYLOAD,2022-03-08 14:00:01,15.73201879,0.0003557,53.2162,34.2448,8.6391,164.7304,0.00012908,0.00017537,0.0,0 STARLINK-3185,1 51144U 22005AS  22067.58334491  .00017537  00000-0  12908-3 0  9994,2 51144  53.2162  34.2448 0003557   8.6391 164.7304 15.73201879  3694,6727.89,91.533,352.148,347.362,0.0
